[{"OBJECT_NAME":"STARLINK-11507 [DTC]","OBJECT_ID":"2025-004J","EPOCH":"2026-03-09T03:48:29.134656","MEAN_MOTION":15.70885505,"ECCENTRICITY":0.00010726,"INCLINATION":42.9993,"RA_OF_ASC_NODE":74.0518,"ARG_OF_PERICENTER":268.5412,"MEAN_ANOMALY":91.5333,"EPHEMERIS_TYPE":0,"CLASSIFICATION_TYPE":"U","NORAD_CAT_ID":62519,"ELEMENT_SET_NO":999,"REV_AT_EPOCH":6712,"BSTAR":0.0013880925,"MEAN_MOTION_DOT":0.00181962,"MEAN_MOTION_DDOT":0},{"OBJECT_NAME":"THORAD AGENA D DEB","OBJECT_ID":"1970-025PF","EPOCH":"2026-03-08T02:58:32.488032","MEAN_MOTION":15.64290563,"ECCENTRICITY":0.00166136,"INCLINATION":99.9335,"RA_OF_ASC_NODE":127.481,"ARG_OF_PERICENTER":247.6747,"MEAN_ANOMALY":112.2743,"EPHEMERIS_TYPE":0,"CLASSIFICATION_TYPE":"U","NORAD_CAT_ID":17717,"ELEMENT_SET_NO":999,"REV_AT_EPOCH":15016,"BSTAR":0.0052904272,"MEAN_MOTION_DOT":0.00540965,"MEAN_MOTION_DDOT":0}]
